KUIPER-00247            
1 67152U 25301V   26004.43779733  .00001708  00000+0  62035-4 0  9992
2 67152  51.8630  15.8644 0011424 181.0995 178.9967 15.34242649  3852
KUIPER-00248            
1 67153U 25301W   26004.62445041  .00032392  00000+0  93869-3 0  9997
2 67153  51.8685  14.8729 0008983 168.8459 191.2728 15.35231149  4050
KUIPER-00249            
1 67154U 25301X   26004.62230403  .00024883  00000+0  72145-3 0  9992
2 67154  51.8664  14.8575 0008344 166.1147 194.0070 15.35362463  3888
KUIPER-00250            
1 67155U 25301Y   26004.61585779  .00028945  00000+0  82287-3 0  9992
2 67155  51.8723  14.8195 0006620 156.2655 203.8637 15.35907051  3912
KUIPER-00251            
1 67156U 25301Z   26004.62352027  .00025110  00000+0  73611-3 0  9994
2 67156  51.8675  14.8663 0009030 163.7258 196.4019 15.35004951  4075
KUIPER-00252            
1 67157U 25301AA  26004.62977011  .00023863  00000+0  70740-3 0  9994
2 67157  51.8664  14.9057 0009926 175.9914 184.1153 15.34675323  3887
KUIPER-00261            
1 67158U 25301AB  26004.61493915  .00020930  00000+0  59957-3 0  9999
2 67158  51.8706  14.8135 0006357 148.6430 211.4937 15.35860259  3885
KUIPER-00265            
1 67159U 25301AC  26004.58335648 -.00657133  00000+0 -20502-1 0  9999
2 67159  51.8751  14.8466 0000799  88.6051 158.6682 15.35001134  3900
GALILEO 33              
1 67160U 25302A   25352.14605887 -.00000007  00000+0  00000+0 0  9994
2 67160  54.2406 107.2544 0008423 237.6458 122.2317  1.72906186    28
GALILEO B               
1 67161U 25302B   26002.75476967 -.00000025  00000+0  00000+0 0  9990
2 67161  54.2350 106.7647 0007180 268.5393  91.3592  1.72971423   303
GALILEO 33 (139)        
1 67162U 25302C   25356.18244914  .00000006  00000+0  00000+0 0  9992
2 67162  54.2447 107.1379 0000312 196.8367 159.4994  1.73130437   127
STARLINK-35755          
1 67163U 25303A   25351.60835648 -.00002699  85337-5  00000+0 0  9999
2 67163  43.0100  69.0834 0011500 323.6500   9.4800 16.01284782    10
STARLINK-36201          
1 67164U 25303B   25351.60835648 -.00002699  85337-5  00000+0 0  9990
2 67164  43.0100  69.0834 0011500 323.6500   9.4800 16.01284782    11
STARLINK-36186          
1 67165U 25303C   25351.60835648 -.00002699  85337-5  00000+0 0  9991
2 67165  43.0100  69.0834 0011500 323.6500   9.4800 16.01284782    12
STARLINK-36174          
1 67166U 25303D   25351.60835648 -.00002699  85337-5  00000+0 0  9992
2 67166  43.0100  69.0834 0011500 323.6500   9.4800 16.01284782    13
STARLINK-36198          
1 67167U 25303E   25351.60835648 -.00002699  85337-5  00000+0 0  9993
2 67167  43.0100  69.0834 0011500 323.6500   9.4800 16.01284782    14
STARLINK-35903          
1 67168U 25303F   25351.60835648 -.00002699  85337-5  00000+0 0  9994
2 67168  43.0100  69.0834 0011500 323.6500   9.4800 16.01284782    15
STARLINK-35839          
1 67169U 25303G   25351.60835648 -.00002699  85337-5  00000+0 0  9995
2 67169  43.0100  69.0834 0011500 323.6500   9.4800 16.01284782    16
STARLINK-35863          
1 67170U 25303H   25351.60835648 -.00002699  85337-5  00000+0 0  9997
2 67170  43.0100  69.0834 0011500 323.6500   9.4800 16.01284782    18
STARLINK-35771          
1 67171U 25303J   25351.60835648 -.00002699  85337-5  00000+0 0  9998
2 67171  43.0100  69.0834 0011500 323.6500   9.4800 16.01284782    19
STARLINK-35762          
1 67172U 25303K   25351.60835648 -.00002699  85337-5  00000+0 0  9999
2 67172  43.0100  69.0834 0011500 323.6500   9.4800 16.01284782    10
STARLINK-36183          
1 67173U 25303L   25351.60835648 -.00002699  85337-5  00000+0 0  9990
2 67173  43.0100  69.0834 0011500 323.6500   9.4800 16.01284782    11
STARLINK-36210          
1 67174U 25303M   25351.60835648 -.00002699  85337-5  00000+0 0  9991
2 67174  43.0100  69.0834 0011500 323.6500   9.4800 16.01284782    12
STARLINK-35756          
1 67175U 25303N   25351.60835648 -.00002699  85337-5  00000+0 0  9992
2 67175  43.0100  69.0834 0011500 323.6500   9.4800 16.01284782    13
STARLINK-35785          
1 67176U 25303P   25351.60835648 -.00002699  85337-5  00000+0 0  9993
2 67176  43.0100  69.0834 0011500 323.6500   9.4800 16.01284782    14
STARLINK-35853          
1 67177U 25303Q   25351.60835648 -.00002699  85337-5  00000+0 0  9994
2 67177  43.0100  69.0834 0011500 323.6500   9.4800 16.01284782    15
STARLINK-35878          
1 67178U 25303R   25351.60835648 -.00002699  85337-5  00000+0 0  9995
2 67178  43.0100  69.0834 0011500 323.6500   9.4800 16.01284782    16
STARLINK-35793          
1 67179U 25303S   25351.60835648 -.00002699  85337-5  00000+0 0  9996
2 67179  43.0100  69.0834 0011500 323.6500   9.4800 16.01284782    17
STARLINK-35876          
1 67180U 25303T   25351.60835648 -.00002699  85337-5  00000+0 0  9998
2 67180  43.0100  69.0834 0011500 323.6500   9.4800 16.01284782    19
STARLINK-35766          
1 67181U 25303U   25351.60835648 -.00002699  85337-5  00000+0 0  9999
2 67181  43.0100  69.0834 0011500 323.6500   9.4800 16.01284782    10
STARLINK-35782          
1 67182U 25303V   25351.60835648 -.00002699  85337-5  00000+0 0  9990
2 67182  43.0100  69.0834 0011500 323.6500   9.4800 16.01284782    11
STARLINK-35719          
1 67183U 25303W   25351.60835648 -.00002699  85337-5  00000+0 0  9991
2 67183  43.0100  69.0834 0011500 323.6500   9.4800 16.01284782    12
STARLINK-35910          
1 67184U 25303X   25351.60835648 -.00002699  85337-5  00000+0 0  9992
2 67184  43.0100  69.0834 0011500 323.6500   9.4800 16.01284782    13
STARLINK-35859          
1 67185U 25303Y   25351.60835648 -.00002699  85337-5  00000+0 0  9993
2 67185  43.0100  69.0834 0011500 323.6500   9.4800 16.01284782    14
STARLINK-35857          
1 67186U 25303Z   25351.60835648 -.00002699  85337-5  00000+0 0  9994
2 67186  43.0100  69.0834 0011500 323.6500   9.4800 16.01284782    15
STARLINK-35880          
1 67187U 25303AA  25351.60835648 -.00002699  85337-5  00000+0 0  9995
2 67187  43.0100  69.0834 0011500 323.6500   9.4800 16.01284782    16
STARLINK-35675          
1 67188U 25303AB  25351.60835648 -.00002699  85337-5  00000+0 0  9996
2 67188  43.0100  69.0834 0011500 323.6500   9.4800 16.01284782    17
STARLINK-35889          
1 67189U 25303AC  25351.60835648 -.00002699  85337-5  00000+0 0  9997
2 67189  43.0100  69.0834 0011500 323.6500   9.4800 16.01284782    18
STARLINK-35888          
1 67190U 25303AD  25351.60835648 -.00002699  85337-5  00000+0 0  9999
2 67190  43.0100  69.0834 0011500 323.6500   9.4800 16.01284782    10
STARLINK-35716          
1 67191U 25303AE  25351.60835648 -.00002699  85337-5  00000+0 0  9990
2 67191  43.0100  69.0834 0011500 323.6500   9.4800 16.01284782    11
STARLINK-36182          
1 67192U 25304A   26004.58335648 -.02001259  00000+0 -34457-1 0  9997
2 67192  69.9996 343.0769 0003087 268.3974 242.6689 15.53991629  4117
STARLINK-36279          
1 67193U 25304B   26004.58335648 -.01998399  00000+0 -34405-1 0  9990
2 67193  69.9996 343.0747 0003110 267.5324 245.4506 15.53989334  4143
STARLINK-36284          
1 67194U 25304C   26004.58335648 -.02007754  00000+0 -34582-1 0  9994
2 67194  69.9997 343.0723 0003066 269.6353 245.2673 15.53992081  4140
STARLINK-36291          
1 67195U 25304D   26004.58335648 -.01841306  00000+0 -32070-1 0  9993
2 67195  69.9996 343.0699 0003350 271.3994 245.4258 15.53937418  4143
STARLINK-36239          
1 67196U 25304E   26004.58335648 -.01843725  00000+0 -32115-1 0  9991
2 67196  69.9994 343.0675 0003494 273.8186 244.9244 15.53937624  4143
STARLINK-36283          
1 67197U 25304F   26004.58335648 -.02008835  00000+0 -34607-1 0  9996
2 67197  69.9996 343.0634 0002924 266.1753 256.3924 15.53990489  4143
STARLINK-36267          
1 67198U 25304G   26004.58335648 -.02012482  00000+0 -34671-1 0  9991
2 67198  69.9996 343.0657 0003082 266.9078 253.7418 15.53993563  4115
STARLINK-36268          
1 67199U 25304H   26004.58335648 -.02000178  00000+0 -34445-1 0  9990
2 67199  69.9997 343.0610 0002951 268.8886 255.5954 15.53986571  4147
STARLINK-36270          
1 67200U 25304J   26004.58335648 -.01781428  00000+0 -30937-1 0  9998
2 67200  69.9994 343.0588 0003018 275.9295 250.4805 15.53908208  4149
STARLINK-36262          
1 67201U 25304K   26004.58335648 -.01852112  00000+0 -32278-1 0  9998
2 67201  69.9995 343.0561 0003460 273.1768 255.1481 15.53940225  4145
STARLINK-36263          
1 67202U 25304L   26004.58335648 -.01777867  00000+0 -30869-1 0  9996
2 67202  69.9994 343.0537 0003165 274.3694 255.8760 15.53905254  4141
STARLINK-36224          
1 67203U 25304M   26004.58335648 -.01782993  00000+0 -30967-1 0  9992
2 67203  69.9994 343.0518 0003140 274.5342 257.6286 15.53907316  4140
STARLINK-36185          
1 67204U 25304N   26004.58335648 -.01788904  00000+0 -31077-1 0  9994
2 67204  69.9994 343.0494 0003036 273.8814 260.1933 15.53913133  4146
STARLINK-36197          
1 67205U 25304P   26004.58335648 -.01785724  00000+0 -31017-1 0  9996
2 67205  69.9993 343.0471 0003110 274.3940 261.5996 15.53909954  4117
STARLINK-36056          
1 67206U 25304Q   26004.58335648 -.01879378  00000+0 -32800-1 0  9997
2 67206  69.9997 343.0447 0003318 273.7844 264.1197 15.53954720  4114
STARLINK-36225          
1 67207U 25304R   26004.58335648 -.01791194  00000+0 -31120-1 0  9991
2 67207  69.9992 343.0424 0003053 275.2845 264.5399 15.53914050  4142
STARLINK-36265          
1 67208U 25304S   26004.58335648 -.01886840  00000+0 -32942-1 0  9998
2 67208  69.9996 343.0400 0003231 270.5542 271.1795 15.53960093  4143
STARLINK-36226          
1 67209U 25304T   26004.58335648 -.01886623  00000+0 -32938-1 0  9993
2 67209  69.9996 343.0378 0003290 272.6549 270.9961 15.53959011  4143
STARLINK-36173          
1 67210U 25304U   26004.58335648 -.01788590  00000+0 -31070-1 0  9995
2 67210  69.9994 343.0357 0003056 276.3734 269.1997 15.53913036  4143
